<?xml version="1.0" encoding="UTF-8"?>
<osm version="0.6" generator="openstreetmap-cgimap 2.1.0 (383548 spike-06.openstreetmap.org)" copyright="OpenStreetMap and contributors" attribution="http://www.openstreetmap.org/copyright" license="http://opendatacommons.org/licenses/odbl/1-0/">
 <bounds minlat="53.2344480" minlon="50.2228240" maxlat="53.2349010" maxlon="50.2235830"/>
 <node id="301947039" visible="true" version="2" changeset="6149069" timestamp="2010-10-23T17:41:21Z" user="AkMeR" uid="11049" lat="53.2348567" lon="50.2233692"/>
 <node id="301947040" visible="true" version="2" changeset="6149069" timestamp="2010-10-23T17:39:37Z" user="AkMeR" uid="11049" lat="53.2347211" lon="50.2235445"/>
 <node id="301947041" visible="true" version="2" changeset="6149069" timestamp="2010-10-23T17:41:41Z" user="AkMeR" uid="11049" lat="53.2346093" lon="50.2228353"/>
 <node id="301947042" visible="true" version="2" changeset="6149069" timestamp="2010-10-23T17:40:52Z" user="AkMeR" uid="11049" lat="53.2344738" lon="50.2230107"/>
 <node id="1890131352" visible="true" version="4" changeset="140752724" timestamp="2023-09-03T10:58:01Z" user="zuzuFan" uid="3419533" lat="53.2346684" lon="50.2229629">
  <tag k="brand" v="Пятёрочка"/>
  <tag k="brand:wikidata" v="Q1768969"/>
  <tag k="brand:wikipedia" v="ru:Пятёрочка"/>
  <tag k="check_date" v="2023-09-03"/>
  <tag k="contact:phone" v="+7 800 5555505"/>
  <tag k="contact:website" v="https://5ka.ru"/>
  <tag k="name" v="Пятёрочка"/>
  <tag k="name:en" v="Pyaterochka"/>
  <tag k="name:ru" v="Пятёрочка"/>
  <tag k="opening_hours" v="08:00-23:00"/>
  <tag k="operator" v="ООО &quot;Агроторг&quot;"/>
  <tag k="ref" v="7292"/>
  <tag k="shop" v="supermarket"/>
 </node>
 <node id="9675486227" visible="true" version="1" changeset="119876061" timestamp="2022-04-18T19:50:40Z" user="zuzuFan" uid="3419533" lat="53.2346779" lon="50.2230956">
  <tag k="addr:door" v="2"/>
  <tag k="email" v="info@ukmayak63.ru"/>
  <tag k="level" v="1"/>
  <tag k="name" v="Маяк"/>
  <tag k="office" v="property_management"/>
  <tag k="opening_hours" v="Mo 09:00-13:00; Tu 14:00-16:00; Th 09:00-13:00, 14:00-1600"/>
  <tag k="operator" v="ООО &quot;Управляющая компания Маяк&quot;"/>
  <tag k="phone" v="+7 846 2060307"/>
  <tag k="website" v="http://ukmayak63.ru"/>
 </node>
 <node id="13524647372" visible="true" version="1" changeset="178104892" timestamp="2026-02-04T17:30:30Z" user="Matvey1221" uid="23788233" lat="53.2347092" lon="50.2231376">
  <tag k="addr:city" v="Самара"/>
  <tag k="addr:housenumber" v="189А"/>
  <tag k="addr:postcode" v="443087"/>
  <tag k="addr:street" v="Ново-Вокзальная улица"/>
  <tag k="image" v="https://avatars.mds.yandex.net/get-altay/13229990/2a0000018fab1b9b65c695c44e156d2435a5/XXXL"/>
  <tag k="name" v="Ателье"/>
  <tag k="office" v="company"/>
  <tag k="official_name" v="Sima"/>
  <tag k="opening_hours" v="Mo-Fr 10:00-19:00"/>
  <tag k="phone" v="+7 (919) 807-00-43"/>
 </node>
 <way id="27503370" visible="true" version="10" changeset="119509449" timestamp="2022-04-09T15:51:47Z" user="DeKaN" uid="471972">
  <nd ref="301947041"/>
  <nd ref="301947042"/>
  <nd ref="301947040"/>
  <nd ref="301947039"/>
  <nd ref="1890131352"/>
  <nd ref="301947041"/>
  <tag k="addr:housenumber" v="189А"/>
  <tag k="addr:postcode" v="443087"/>
  <tag k="addr:street" v="Ново-Вокзальная улица"/>
  <tag k="building" v="commercial"/>
  <tag k="building:levels" v="5"/>
 </way>
</osm>
