<?xml version="1.0" encoding="UTF-8"?>
<osmChange version="0.6" generator="openstreetmap-cgimap 2.1.0 (383549 spike-06.openstreetmap.org)" copyright="OpenStreetMap and contributors" attribution="http://www.openstreetmap.org/copyright" license="http://opendatacommons.org/licenses/odbl/1-0/">
 <create>
  <node id="13524647371" visible="true" version="1" changeset="178104892" timestamp="2026-02-04T17:30:30Z" user="Matvey1221" uid="23788233" lat="53.2202994" lon="50.1950882">
   <tag k="addr:city" v="Самара"/>
   <tag k="addr:housenumber" v="95 к2"/>
   <tag k="addr:postcode" v="443080"/>
   <tag k="addr:street" v="улица Санфировой"/>
   <tag k="name" v="Роспак"/>
   <tag k="office" v="company"/>
   <tag k="opening_hours" v="Mo-Fr 09:00-18:00"/>
   <tag k="phone" v="8 (800) 551-80-10"/>
   <tag k="website" v="https://rspak.ru/"/>
  </node>
 </create>
 <create>
  <node id="13524647372" visible="true" version="1" changeset="178104892" timestamp="2026-02-04T17:30:30Z" user="Matvey1221" uid="23788233" lat="53.2347092" lon="50.2231376">
   <tag k="addr:city" v="Самара"/>
   <tag k="addr:housenumber" v="189А"/>
   <tag k="addr:postcode" v="443087"/>
   <tag k="addr:street" v="Ново-Вокзальная улица"/>
   <tag k="image" v="https://avatars.mds.yandex.net/get-altay/13229990/2a0000018fab1b9b65c695c44e156d2435a5/XXXL"/>
   <tag k="name" v="Ателье"/>
   <tag k="office" v="company"/>
   <tag k="official_name" v="Sima"/>
   <tag k="opening_hours" v="Mo-Fr 10:00-19:00"/>
   <tag k="phone" v="+7 (919) 807-00-43"/>
  </node>
 </create>
</osmChange>
